start=new Date('2023-01-28T00:00:00.000Z').valueOf();
sats=[{"CLASSIFICATION_TYPE":"U","RCS_SIZE":"LARGE","MEAN_MOTION_DOT":"0.00011214","GP_ID":"223808562","MEAN_MOTION_DDOT":"0.0000000000000","ECCENTRICITY":"0.00011440","ARG_OF_PERICENTER":"76.2790","EPOCH":"2023-01-27T02:50:19.567392","CENTER_NAME":"EARTH","ELEMENT_SET_NO":"999","PERIOD":"95.436","TLE_LINE1":"1 53622U 22104AL  23027.11828203  .00011214  00000-0  72121-3 0  9991","OBJECT_ID":"2022-104AL","MEAN_ELEMENT_THEORY":"SGP4","TIME_SYSTEM":"UTC","OBJECT_TYPE":"PAYLOAD","MEAN_ANOMALY":"283.8330","NORAD_CAT_ID":"53622","DECAY_DATE":null,"FILE":"3762956","RA_OF_ASC_NODE":"300.6485","TLE_LINE2":"2 53622  53.2164 300.6485 0001144  76.2790 283.8330 15.08856817 24011","SITE":"AFETR","REV_AT_EPOCH":"2401","APOAPSIS":"540.485","LAUNCH_DATE":"2022-08-28","INCLINATION":"53.2164","MEAN_MOTION":"15.08856817","COUNTRY_CODE":"US","REF_FRAME":"TEME","BSTAR":"0.00072121000000","EPHEMERIS_TYPE":"0","PERIAPSIS":"538.903","SEMIMAJOR_AXIS":"6917.829","OBJECT_NAME":"STARLINK-4568"},{"CLASSIFICATION_TYPE":"U","GP_ID":"223841235","RCS_SIZE":"LARGE","MEAN_MOTION_DOT":"-0.00000266","CENTER_NAME":"EARTH","PERIOD":"95.438","ELEMENT_SET_NO":"999","TLE_LINE1":"1 53623U 22104AM  23027.85703351 -.00000266  00000-0  13671-5 0  9992","MEAN_MOTION_DDOT":"0.0000000000000","ARG_OF_PERICENTER":"101.0312","ECCENTRICITY":"0.00009530","EPOCH":"2023-01-27T20:34:07.695264","OBJECT_TYPE":"PAYLOAD","MEAN_ANOMALY":"259.0787","NORAD_CAT_ID":"53623","OBJECT_ID":"2022-104AM","TIME_SYSTEM":"UTC","MEAN_ELEMENT_THEORY":"SGP4","RA_OF_ASC_NODE":"297.4338","SITE":"AFETR","TLE_LINE2":"2 53623  53.2175 297.4338 0000953 101.0312 259.0787 15.08826794 24122","DECAY_DATE":null,"FILE":"3763218","LAUNCH_DATE":"2022-08-28","MEAN_MOTION":"15.08826794","INCLINATION":"53.2175","APOAPSIS":"540.445","REV_AT_EPOCH":"2412","REF_FRAME":"TEME","BSTAR":"0.00000136710000","EPHEMERIS_TYPE":"0","COUNTRY_CODE":"US","PERIAPSIS":"539.126","SEMIMAJOR_AXIS":"6917.921","OBJECT_NAME":"STARLINK-4573"},{"MEAN_MOTION_DOT":"0.00008477","RCS_SIZE":"LARGE","GP_ID":"223809039","CLASSIFICATION_TYPE":"U","TIME_SYSTEM":"UTC","MEAN_ELEMENT_THEORY":"SGP4","OBJECT_ID":"2022-104AN","NORAD_CAT_ID":"53624","MEAN_ANOMALY":"274.3965","OBJECT_TYPE":"PAYLOAD","EPOCH":"2023-01-27T02:48:56.751264","ECCENTRICITY":"0.00011000","ARG_OF_PERICENTER":"85.7153","MEAN_MOTION_DDOT":"0.0000000000000","TLE_LINE1":"1 53624U 22104AN  23027.11732351  .00008477  00000-0  54981-3 0  9992","ELEMENT_SET_NO":"999","PERIOD":"95.436","CENTER_NAME":"EARTH","REV_AT_EPOCH":"2401","APOAPSIS":"540.455","INCLINATION":"53.2167","MEAN_MOTION":"15.08856714","LAUNCH_DATE":"2022-08-28","FILE":"3762956","DECAY_DATE":null,"TLE_LINE2":"2 53624  53.2167 300.6351 0001100  85.7153 274.3965 15.08856714 24013","SITE":"AFETR","RA_OF_ASC_NODE":"300.6351","OBJECT_NAME":"STARLINK-4596","SEMIMAJOR_AXIS":"6917.829","PERIAPSIS":"538.933","COUNTRY_CODE":"US","EPHEMERIS_TYPE":"0","BSTAR":"0.00054981000000","REF_FRAME":"TEME"},{"TLE_LINE1":"1 53625U 22104AP  23027.18725793  .00006352  00000-0  41685-3 0  9999","PERIOD":"95.438","ELEMENT_SET_NO":"999","CENTER_NAME":"EARTH","EPOCH":"2023-01-27T04:29:39.085152","ARG_OF_PERICENTER":"78.0799","ECCENTRICITY":"0.00011450","MEAN_MOTION_DDOT":"0.0000000000000","NORAD_CAT_ID":"53625","MEAN_ANOMALY":"282.0321","OBJECT_TYPE":"PAYLOAD","MEAN_ELEMENT_THEORY":"SGP4","TIME_SYSTEM":"UTC","OBJECT_ID":"2022-104AP","CLASSIFICATION_TYPE":"U","GP_ID":"223808313","MEAN_MOTION_DOT":"0.00006352","RCS_SIZE":"LARGE","EPHEMERIS_TYPE":"0","BSTAR":"0.00041685000000","REF_FRAME":"TEME","COUNTRY_CODE":"US","OBJECT_NAME":"STARLINK-4603","SEMIMAJOR_AXIS":"6917.885","PERIAPSIS":"538.958","TLE_LINE2":"2 53625  53.2175 300.3641 0001145  78.0799 282.0321 15.08838538 24029","SITE":"AFETR","RA_OF_ASC_NODE":"300.3641","FILE":"3762956","DECAY_DATE":null,"INCLINATION":"53.2175","MEAN_MOTION":"15.08838538","LAUNCH_DATE":"2022-08-28","REV_AT_EPOCH":"2402","APOAPSIS":"540.542"},{"REF_FRAME":"TEME","BSTAR":"0.00008443700000","EPHEMERIS_TYPE":"0","COUNTRY_CODE":"US","PERIAPSIS":"539.052","SEMIMAJOR_AXIS":"6917.954","OBJECT_NAME":"STARLINK-4554","RA_OF_ASC_NODE":"297.0128","SITE":"AFETR","TLE_LINE2":"2 53626  53.2143 297.0128 0001108 111.8777 248.2333 15.08815967 24149","DECAY_DATE":null,"FILE":"3763218","LAUNCH_DATE":"2022-08-28","INCLINATION":"53.2143","MEAN_MOTION":"15.08815967","REV_AT_EPOCH":"2414","APOAPSIS":"540.585","CENTER_NAME":"EARTH","PERIOD":"95.439","ELEMENT_SET_NO":"999","TLE_LINE1":"1 53626U 22104AQ  23027.90116232  .00001055  00000-0  84437-4 0  9990","MEAN_MOTION_DDOT":"0.0000000000000","ARG_OF_PERICENTER":"111.8777","ECCENTRICITY":"0.00011080","EPOCH":"2023-01-27T21:37:40.424448","OBJECT_TYPE":"PAYLOAD","MEAN_ANOMALY":"248.2333","NORAD_CAT_ID":"53626","OBJECT_ID":"2022-104AQ","MEAN_ELEMENT_THEORY":"SGP4","TIME_SYSTEM":"UTC","CLASSIFICATION_TYPE":"U","GP_ID":"223839992","RCS_SIZE":"LARGE","MEAN_MOTION_DOT":"0.00001055"},{"PERIAPSIS":"538.911","OBJECT_NAME":"STARLINK-4595","SEMIMAJOR_AXIS":"6917.858","COUNTRY_CODE":"US","BSTAR":"-0.00006061500000","REF_FRAME":"TEME","EPHEMERIS_TYPE":"0","APOAPSIS":"540.534","REV_AT_EPOCH":"2334","LAUNCH_DATE":"2022-08-28","INCLINATION":"53.2176","MEAN_MOTION":"15.08847402","DECAY_DATE":null,"FILE":"3762554","TLE_LINE2":"2 53627  53.2176 300.3183 0001173  93.6611 266.4515 15.08847402 23345","SITE":"AFETR","RA_OF_ASC_NODE":"300.3183","OBJECT_ID":"2022-104AR","MEAN_ELEMENT_THEORY":"SGP4","TIME_SYSTEM":"UTC","MEAN_ANOMALY":"266.4515","OBJECT_TYPE":"PAYLOAD","NORAD_CAT_ID":"53627","ARG_OF_PERICENTER":"93.6611","ECCENTRICITY":"0.00011730","MEAN_MOTION_DDOT":"0.0000000000000","EPOCH":"2023-01-27T04:19:01.164576","CENTER_NAME":"EARTH","TLE_LINE1":"1 53627U 22104AR  23027.17987459 -.00001253  00000-0 -60615-4 0  9991","ELEMENT_SET_NO":"999","PERIOD":"95.437","RCS_SIZE":"LARGE","MEAN_MOTION_DOT":"-0.00001253","GP_ID":"223774714","CLASSIFICATION_TYPE":"U"},{"FILE":"3763218","DECAY_DATE":null,"RA_OF_ASC_NODE":"296.9631","TLE_LINE2":"2 53628  53.2151 296.9631 0001412 113.4101 246.7040 15.08838122 24140","SITE":"AFETR","APOAPSIS":"540.728","REV_AT_EPOCH":"2414","MEAN_MOTION":"15.08838122","INCLINATION":"53.2151","LAUNCH_DATE":"2022-08-28","COUNTRY_CODE":"US","EPHEMERIS_TYPE":"0","REF_FRAME":"TEME","BSTAR":"0.00006829900000","SEMIMAJOR_AXIS":"6917.886","OBJECT_NAME":"STARLINK-4600","PERIAPSIS":"538.774","CLASSIFICATION_TYPE":"U","MEAN_MOTION_DOT":"0.00000799","RCS_SIZE":"LARGE","GP_ID":"223841484","EPOCH":"2023-01-27T21:27:02.998944","MEAN_MOTION_DDOT":"0.0000000000000","ARG_OF_PERICENTER":"113.4101","ECCENTRICITY":"0.00014120","PERIOD":"95.438","ELEMENT_SET_NO":"999","TLE_LINE1":"1 53628U 22104AS  23027.89378471  .00000799  00000-0  68299-4 0  9997","CENTER_NAME":"EARTH","MEAN_ELEMENT_THEORY":"SGP4","TIME_SYSTEM":"UTC","OBJECT_ID":"2022-104AS","NORAD_CAT_ID":"53628","OBJECT_TYPE":"PAYLOAD","MEAN_ANOMALY":"246.7040"},{"REV_AT_EPOCH":"2334","APOAPSIS":"540.922","MEAN_MOTION":"15.08842310","INCLINATION":"53.2176","LAUNCH_DATE":"2022-08-28","FILE":"3762559","DECAY_DATE":null,"RA_OF_ASC_NODE":"300.2991","SITE":"AFETR","TLE_LINE2":"2 53629  53.2176 300.2991 0001711  43.2806 316.8320 15.08842310 23345","SEMIMAJOR_AXIS":"6917.873","OBJECT_NAME":"STARLINK-4602","PERIAPSIS":"538.555","COUNTRY_CODE":"US","EPHEMERIS_TYPE":"0","REF_FRAME":"TEME","BSTAR":"0.00000400300000","MEAN_MOTION_DOT":"-0.00000224","RCS_SIZE":"LARGE","GP_ID":"223774504","CLASSIFICATION_TYPE":"U","MEAN_ELEMENT_THEORY":"SGP4","TIME_SYSTEM":"UTC","OBJECT_ID":"2022-104AT","NORAD_CAT_ID":"53629","OBJECT_TYPE":"PAYLOAD","MEAN_ANOMALY":"316.8320","EPOCH":"2023-01-27T04:13:43.201344","MEAN_MOTION_DDOT":"0.0000000000000","ECCENTRICITY":"0.00017110","ARG_OF_PERICENTER":"43.2806","ELEMENT_SET_NO":"999","PERIOD":"95.437","TLE_LINE1":"1 53629U 22104AT  23027.17619446 -.00000224  00000-0  40030-5 0  9997","CENTER_NAME":"EARTH"},{"COUNTRY_CODE":"US","EPHEMERIS_TYPE":"0","REF_FRAME":"TEME","BSTAR":"0.00013365000000","SEMIMAJOR_AXIS":"6917.922","OBJECT_NAME":"STARLINK-4598","PERIAPSIS":"539.156","FILE":"3763218","DECAY_DATE":null,"RA_OF_ASC_NODE":"287.5516","SITE":"AFETR","TLE_LINE2":"2 53630  53.2203 287.5516 0000911  56.7267 303.3813 15.08826483 24442","APOAPSIS":"540.417","REV_AT_EPOCH":"2444","MEAN_MOTION":"15.08826483","INCLINATION":"53.2203","LAUNCH_DATE":"2022-08-28","EPOCH":"2023-01-27T20:56:40.950816","MEAN_MOTION_DDOT":"0.0000000000000","ECCENTRICITY":"0.00009110","ARG_OF_PERICENTER":"56.7267","PERIOD":"95.438","ELEMENT_SET_NO":"999","TLE_LINE1":"1 53630U 22104AU  23027.87269619  .00001839  00000-0  13365-3 0  9990","CENTER_NAME":"EARTH","TIME_SYSTEM":"UTC","MEAN_ELEMENT_THEORY":"SGP4","OBJECT_ID":"2022-104AU","NORAD_CAT_ID":"53630","OBJECT_TYPE":"PAYLOAD","MEAN_ANOMALY":"303.3813","CLASSIFICATION_TYPE":"U","MEAN_MOTION_DOT":"0.00001839","RCS_SIZE":"LARGE","GP_ID":"223840490"},{"CENTER_NAME":"EARTH","TLE_LINE1":"1 53631U 22104AV  23027.89747969  .00000609  00000-0  56368-4 0  9997","ELEMENT_SET_NO":"999","PERIOD":"95.438","ECCENTRICITY":"0.00012820","ARG_OF_PERICENTER":"114.8422","MEAN_MOTION_DDOT":"0.0000000000000","EPOCH":"2023-01-27T21:32:22.245216","MEAN_ANOMALY":"245.2703","OBJECT_TYPE":"PAYLOAD","NORAD_CAT_ID":"53631","OBJECT_ID":"2022-104AV","TIME_SYSTEM":"UTC","MEAN_ELEMENT_THEORY":"SGP4","CLASSIFICATION_TYPE":"U","GP_ID":"223841236","RCS_SIZE":"LARGE","MEAN_MOTION_DOT":"0.00000609","BSTAR":"0.00005636800000","REF_FRAME":"TEME","EPHEMERIS_TYPE":"0","COUNTRY_CODE":"US","PERIAPSIS":"538.891","OBJECT_NAME":"STARLINK-4599","SEMIMAJOR_AXIS":"6917.912","SITE":"AFETR","TLE_LINE2":"2 53631  53.2166 296.9840 0001282 114.8422 245.2703 15.08829520 24140","RA_OF_ASC_NODE":"296.9840","DECAY_DATE":null,"FILE":"3763218","LAUNCH_DATE":"2022-08-28","MEAN_MOTION":"15.08829520","INCLINATION":"53.2166","APOAPSIS":"540.664","REV_AT_EPOCH":"2414"}];
